{
  "norad_id": 66209,
  "name": "STARLINK-35750",
  "history": [
    {
      "epoch": "2026-03-28T10:30:01.559520Z",
      "apogee_km": 475.8784685026967,
      "perigee_km": 474.53548721679545,
      "latitude_deg": 1.5261429004898702e-05,
      "longitude_deg": 159.20104015749217,
      "height_km": 475.7693522717941,
      "semi_major_axis_km": 6853.343977859746,
      "eccentricity": 9.798e-05,
      "inclination_deg": 53.157,
      "raan_deg": 142.5655,
      "arg_perigee_deg": 59.9799,
      "mean_anomaly_deg": 300.1299,
      "mean_motion_rev_day": 15.3020271
    },
    {
      "epoch": "2026-03-30T03:15:24.731424Z",
      "apogee_km": 475.9995140491419,
      "perigee_km": 474.3071625330049,
      "latitude_deg": 1.3834970205695163e-05,
      "longitude_deg": -101.70751743675255,
      "height_km": 475.93539380246136,
      "semi_major_axis_km": 6853.290338291074,
      "eccentricity": 0.00012347,
      "inclination_deg": 53.1582,
      "raan_deg": 134.6773,
      "arg_perigee_deg": 82.1276,
      "mean_anomaly_deg": 277.9865,
      "mean_motion_rev_day": 15.30220675
    },
    {
      "epoch": "2026-03-30T12:39:43.947936Z",
      "apogee_km": 475.95687276323497,
      "perigee_km": 474.46448777237947,
      "latitude_deg": 6.11731459718429e-05,
      "longitude_deg": 115.00878598279402,
      "height_km": 475.87711288131993,
      "semi_major_axis_km": 6853.347680267807,
      "eccentricity": 0.00010888,
      "inclination_deg": 53.1591,
      "raan_deg": 132.8599,
      "arg_perigee_deg": 71.8971,
      "mean_anomaly_deg": 288.2149,
      "mean_motion_rev_day": 15.3020147
    },
    {
      "epoch": "2026-03-31T12:10:31.915776Z",
      "apogee_km": 476.0629810813798,
      "perigee_km": 474.4111808603848,
      "latitude_deg": -5.046747107607898e-05,
      "longitude_deg": 116.79048014082467,
      "height_km": 476.09572170475303,
      "semi_major_axis_km": 6853.3740809708825,
      "eccentricity": 0.00012051,
      "inclination_deg": 53.1587,
      "raan_deg": 128.3072,
      "arg_perigee_deg": 87.2663,
      "mean_anomaly_deg": 272.8475,
      "mean_motion_rev_day": 15.30192628
    },
    {
      "epoch": "2026-04-01T19:31:36.042240Z",
      "apogee_km": 476.46013833588313,
      "perigee_km": 473.96963026112917,
      "latitude_deg": -2.4928119147926966e-07,
      "longitude_deg": -0.8330201730033018,
      "height_km": 475.997767238141,
      "semi_major_axis_km": 6853.351884298506,
      "eccentricity": 0.0001817,
      "inclination_deg": 53.1584,
      "raan_deg": 122.2384,
      "arg_perigee_deg": 84.7352,
      "mean_anomaly_deg": 275.3856,
      "mean_motion_rev_day": 15.30200062
    },
    {
      "epoch": "2026-04-02T19:02:23.557344Z",
      "apogee_km": 476.1633317661963,
      "perigee_km": 474.16545734365445,
      "latitude_deg": 5.643811410416623e-05,
      "longitude_deg": 0.9522904931146619,
      "height_km": 476.1353140472327,
      "semi_major_axis_km": 6853.301394554925,
      "eccentricity": 0.00014576,
      "inclination_deg": 53.158,
      "raan_deg": 117.6873,
      "arg_perigee_deg": 94.209,
      "mean_anomaly_deg": 265.9078,
      "mean_motion_rev_day": 15.30216972
    },
    {
      "epoch": "2026-04-03T09:08:52.155744Z",
      "apogee_km": 475.99448767053036,
      "perigee_km": 474.4231525408959,
      "latitude_deg": 4.817551611173763e-05,
      "longitude_deg": 146.02303177955804,
      "height_km": 475.98337039932295,
      "semi_major_axis_km": 6853.345820105713,
      "eccentricity": 0.00011464,
      "inclination_deg": 53.1584,
      "raan_deg": 114.9566,
      "arg_perigee_deg": 80.9534,
      "mean_anomaly_deg": 279.1597,
      "mean_motion_rev_day": 15.30202093
    },
    {
      "epoch": "2026-04-04T10:13:43.861440Z",
      "apogee_km": 476.0510423145597,
      "perigee_km": 474.3249638792795,
      "latitude_deg": 3.434073471702007e-06,
      "longitude_deg": 123.92501631685023,
      "height_km": 475.78639230978735,
      "semi_major_axis_km": 6853.325003096919,
      "eccentricity": 0.00012593,
      "inclination_deg": 53.159,
      "raan_deg": 110.1041,
      "arg_perigee_deg": 69.6795,
      "mean_anomaly_deg": 290.4341,
      "mean_motion_rev_day": 15.30209065
    },
    {
      "epoch": "2026-04-05T09:44:31.904448Z",
      "apogee_km": 476.11662491607694,
      "perigee_km": 474.34091784471184,
      "latitude_deg": -1.0614867748843683e-06,
      "longitude_deg": 125.70977371744684,
      "height_km": 475.9779090150218,
      "semi_major_axis_km": 6853.365771380394,
      "eccentricity": 0.00012955,
      "inclination_deg": 53.1584,
      "raan_deg": 105.5547,
      "arg_perigee_deg": 80.3548,
      "mean_anomaly_deg": 279.7599,
      "mean_motion_rev_day": 15.30195411
    },
    {
      "epoch": "2026-04-05T17:34:47.935200Z",
      "apogee_km": 476.238533131841,
      "perigee_km": 474.1852698009616,
      "latitude_deg": 4.454367962706213e-06,
      "longitude_deg": 6.301295995858637,
      "height_km": 475.9794857997005,
      "semi_major_axis_km": 6853.348901466401,
      "eccentricity": 0.0001498,
      "inclination_deg": 53.1587,
      "raan_deg": 104.0349,
      "arg_perigee_deg": 82.7222,
      "mean_anomaly_deg": 277.3949,
      "mean_motion_rev_day": 15.30201061
    },
    {
      "epoch": "2026-04-06T06:07:13.215648Z",
      "apogee_km": 475.90037125724666,
      "perigee_km": 474.45966695348943,
      "latitude_deg": -1.0741117775802438e-05,
      "longitude_deg": 175.25623425442956,
      "height_km": 476.06813551748485,
      "semi_major_axis_km": 6853.317019105368,
      "eccentricity": 0.00010511,
      "inclination_deg": 53.1581,
      "raan_deg": 101.6102,
      "arg_perigee_deg": 89.2,
      "mean_anomaly_deg": 270.9121,
      "mean_motion_rev_day": 15.30211739
    },
    {
      "epoch": "2026-04-07T05:38:00.963168Z",
      "apogee_km": 475.8576318275491,
      "perigee_km": 474.4562702804378,
      "latitude_deg": 8.576420279097369e-06,
      "longitude_deg": 177.03954270446752,
      "height_km": 476.14610926243483,
      "semi_major_axis_km": 6853.293951053994,
      "eccentricity": 0.00010224,
      "inclination_deg": 53.158,
      "raan_deg": 97.0581,
      "arg_perigee_deg": 97.4579,
      "mean_anomaly_deg": 262.6538,
      "mean_motion_rev_day": 15.30219465
    },
    {
      "epoch": "2026-04-08T06:42:52.305120Z",
      "apogee_km": 476.03113667469825,
      "perigee_km": 474.4347126844432,
      "latitude_deg": 1.3247146104709996e-05,
      "longitude_deg": 154.94108115160927,
      "height_km": 475.8894901767627,
      "semi_major_axis_km": 6853.36992467957,
      "eccentricity": 0.00011647,
      "inclination_deg": 53.1577,
      "raan_deg": 92.2036,
      "arg_perigee_deg": 72.3906,
      "mean_anomaly_deg": 287.7222,
      "mean_motion_rev_day": 15.3019402
    },
    {
      "epoch": "2026-04-09T15:37:59.587104Z",
      "apogee_km": 476.2550691933311,
      "perigee_km": 474.1620574582921,
      "latitude_deg": -8.926598501224108e-06,
      "longitude_deg": 13.436896374432271,
      "height_km": 475.6507688606905,
      "semi_major_axis_km": 6853.345563325812,
      "eccentricity": 0.0001527,
      "inclination_deg": 53.1582,
      "raan_deg": 85.8317,
      "arg_perigee_deg": 64.1957,
      "mean_anomaly_deg": 295.9201,
      "mean_motion_rev_day": 15.30202179
    },
    {
      "epoch": "2026-04-10T05:44:28.113792Z",
      "apogee_km": 476.08342226143486,
      "perigee_km": 474.2481077809616,
      "latitude_deg": -1.4939235117146936e-06,
      "longitude_deg": 158.5092472735587,
      "height_km": 475.9542601173355,
      "semi_major_axis_km": 6853.302765021198,
      "eccentricity": 0.0001339,
      "inclination_deg": 53.158,
      "raan_deg": 83.1023,
      "arg_perigee_deg": 83.1599,
      "mean_anomaly_deg": 276.9554,
      "mean_motion_rev_day": 15.30216513
    },
    {
      "epoch": "2026-04-11T08:23:22.612992Z",
      "apogee_km": 475.9985192925742,
      "perigee_km": 474.463364873548,
      "latitude_deg": -6.656144508249038e-05,
      "longitude_deg": 112.53000257774438,
      "height_km": 475.98820398292673,
      "semi_major_axis_km": 6853.367942083061,
      "eccentricity": 0.000112,
      "inclination_deg": 53.1588,
      "raan_deg": 77.9446,
      "arg_perigee_deg": 79.4207,
      "mean_anomaly_deg": 280.6919,
      "mean_motion_rev_day": 15.30194684
    },
    {
      "epoch": "2026-04-12T04:46:04.125504Z",
      "apogee_km": 475.5512036175023,
      "perigee_km": 474.8942405545422,
      "latitude_deg": -1.92344017666762e-05,
      "longitude_deg": 162.0767650766814,
      "height_km": 475.79467397841773,
      "semi_major_axis_km": 6853.359722086022,
      "eccentricity": 4.793e-05,
      "inclination_deg": 53.1605,
      "raan_deg": 74.0012,
      "arg_perigee_deg": 3.7518,
      "mean_anomaly_deg": 356.3486,
      "mean_motion_rev_day": 15.30197437
    },
    {
      "epoch": "2026-04-14T21:02:14.917056Z",
      "apogee_km": 476.47095228340186,
      "perigee_km": 473.87628888244944,
      "latitude_deg": 2.9257119684453145e-05,
      "longitude_deg": -97.04642341613537,
      "height_km": 476.0723696196217,
      "semi_major_axis_km": 6853.310620582925,
      "eccentricity": 0.0001893,
      "inclination_deg": 53.1591,
      "raan_deg": 61.5624,
      "arg_perigee_deg": 90.0729,
      "mean_anomaly_deg": 270.0489,
      "mean_motion_rev_day": 15.30213882
    },
    {
      "epoch": "2026-04-15T20:33:03.282336Z",
      "apogee_km": 476.1874256223209,
      "perigee_km": 474.22873959771186,
      "latitude_deg": 2.7111832676345672e-05,
      "longitude_deg": -95.26380756824048,
      "height_km": 476.0104266391085,
      "semi_major_axis_km": 6853.345082610016,
      "eccentricity": 0.0001429,
      "inclination_deg": 53.1597,
      "raan_deg": 57.0122,
      "arg_perigee_deg": 84.4047,
      "mean_anomaly_deg": 275.7117,
      "mean_motion_rev_day": 15.3020234
    }
  ]
}